[{"OBJECT_NAME":"STARLINK-3636","OBJECT_ID":"2022-025AR","EPOCH":"2026-03-09T06:41:11.659488","MEAN_MOTION":15.08837899,"ECCENTRICITY":0.00015199,"INCLINATION":53.2194,"RA_OF_ASC_NODE":20.9662,"ARG_OF_PERICENTER":91.0542,"MEAN_ANOMALY":269.0625,"EPHEMERIS_TYPE":0,"CLASSIFICATION_TYPE":"U","NORAD_CAT_ID":51995,"ELEMENT_SET_NO":999,"REV_AT_EPOCH":22084,"BSTAR":-2.7162514e-5,"MEAN_MOTION_DOT":-7.2e-6,"MEAN_MOTION_DDOT":0},{"OBJECT_NAME":"SL-24 DEB","OBJECT_ID":"2006-029C","EPOCH":"2026-03-09T21:47:25.301472","MEAN_MOTION":13.35098468,"ECCENTRICITY":0.08212164,"INCLINATION":64.5748,"RA_OF_ASC_NODE":270.8752,"ARG_OF_PERICENTER":290.3345,"MEAN_ANOMALY":61.134,"EPHEMERIS_TYPE":0,"CLASSIFICATION_TYPE":"U","NORAD_CAT_ID":29256,"ELEMENT_SET_NO":999,"REV_AT_EPOCH":95739,"BSTAR":5.8382867e-5,"MEAN_MOTION_DOT":1.05e-6,"MEAN_MOTION_DDOT":0}]
